KUIPER-00560            
1 69623U 26140AH  26193.26467940 -.00039582  00000+0 -10138-2 0  9991
2 69623  51.8790 277.2998 0010929 257.9949 101.9814 15.38632727  5090
KUIPER-00561            
1 69624U 26140AJ  26192.74769253 -.00566727  00000+0 -15961-1 0  9990
2 69624  51.8826 279.8412 0009245 285.6749  74.3218 15.38107852  5014
KUIPER-00564            
1 69625U 26140AK  26192.55379724  .00009777  00000+0  27356-3 0  9998
2 69625  51.8812 280.7881 0009375 286.2520  73.7435 15.37273245  4987
KUIPER-00567            
1 69626U 26140AL  26193.26216314  .00017458  00000+0  46505-3 0  9995
2 69626  51.8798 277.2788 0011450 266.7874  93.1803 15.38211067  5093
KUIPER-00573            
1 69627U 26140AM  26192.49611577  .00014175  00000+0  38988-3 0  9999
2 69627  51.8794 281.1424 0009230 272.3380  87.6550 15.37412133  4978
CENTISPACE-1 GROUP 05 O*
1 69636U 26138J   26192.99270146 -.00000296  00000+0 -72013-4 0  9993
2 69636  55.1383 189.5194 0009418 338.0414  22.0155 14.15842737  3504
VICTUS HAZE PUMA        
1 69646U 26142A   26193.28447767  .00002194  00000+0  10185-3 0  9995
2 69646  97.4474  90.6217 0025056 276.7377  83.1008 15.20835629  3486
HOKUSHIN-1              
1 69648U 98067YH  26192.87792963  .00014373  00000+0  25125-3 0  9999
2 69648  51.6304 177.6950 0006148 318.2194  41.8325 15.50892630  3483
STARLINK-37656          
1 69649U 26143A   26193.05143847  .00034283  00000+0  62851-3 0  9997
2 69649  97.2853 236.9044 0001708 107.3717 252.7721 15.49223123  4394
STARLINK-37646          
1 69650U 26143B   26193.25002315 -.00020186  00000+0 -37073-3 0  9992
2 69650  97.2852 237.2799 0001735  81.4823 356.2654 15.49165293  4484
STARLINK-37749          
1 69651U 26143C   26193.25002315 -.00032354  00000+0 -59526-3 0  9990
2 69651  97.2850 237.2639 0000661 130.5574 268.7840 15.49209545  4485
STARLINK-37819          
1 69652U 26143D   26193.25002315 -.00036604  00000+0 -67393-3 0  9994
2 69652  97.2848 237.2374 0001561  68.0337 266.9281 15.49211840  4481
STARLINK-37729          
1 69653U 26143E   26193.25002315 -.00076260  00000+0 -36042-3 0  9994
2 69653  97.2828 237.4756 0001289 192.7707 338.3582 15.83113586  4483
STARLINK-37838          
1 69654U 26143F   26193.25002315 -.00019208  00000+0 -35234-3 0  9996
2 69654  97.2847 237.3057 0001620  54.9067  85.0875 15.49190310  4488
STARLINK-37884          
1 69655U 26143G   26193.25002315 -.00029582  00000+0 -54384-3 0  9990
2 69655  97.2849 237.2181 0000978  85.5016 202.8750 15.49213005  4485
STARLINK-37876          
1 69656U 26143H   26193.25002315 -.00028581  00000+0 -52555-3 0  9997
2 69656  97.2844 237.3047 0001219  89.1758  48.4008 15.49199963  4391
STARLINK-37784          
1 69657U 26143J   26193.25002315 -.00035981  00000+0 -66244-3 0  9990
2 69657  97.2849 237.2346 0001396  76.4286 253.5878 15.49210262  4399
STARLINK-37851          
1 69658U 26143K   26193.25002315 -.00032276  00000+0 -59383-3 0  9991
2 69658  97.2847 237.3002 0000823  91.6168  33.9406 15.49208066  4385
STARLINK-37229          
1 69659U 26143L   26193.25002315 -.00029933  00000+0 -55042-3 0  9996
2 69659  97.2852 237.2544 0001371  97.5711 279.3327 15.49208125  4430
STARLINK-37556          
1 69660U 26143M   26193.25002315 -.00026450  00000+0 -48593-3 0  9992
2 69660  97.2853 237.2824 0001219  88.9433 351.8983 15.49210284  4433
STARLINK-37867          
1 69661U 26143N   26193.25002315 -.00036314  00000+0 -66869-3 0  9999
2 69661  97.2848 237.2997 0001775  79.4715  44.5812 15.49205776  4396
STARLINK-37852          
1 69662U 26143P   26193.25002315 -.00032077  00000+0 -59000-3 0  9991
2 69662  97.2848 237.2254 0001438  82.3306 224.7625 15.49213732  4393
STARLINK-37554          
1 69663U 26143Q   26193.25002315 -.00032294  00000+0 -59420-3 0  9999
2 69663  97.2851 237.2767 0000949  68.7014   2.6651 15.49206176  4438
STARLINK-37830          
1 69664U 26143R   26193.25002315 -.00039673  00000+0 -73087-3 0  9993
2 69664  97.2850 237.2410 0001807  94.5409 252.5680 15.49211335  4387
STARLINK-37837          
1 69665U 26143S   26193.25002315  .00050051  00000+0  91606-3 0  9992
2 69665  97.2865 237.3106 0001505  49.6341  80.3191 15.49190082  4398
STARLINK-37943          
1 69666U 26143T   26193.25002315 -.00020451  00000+0 -37486-3 0  9992
2 69666  97.2850 237.2443 0001712  78.5060 271.5369 15.49224091  4394
STARLINK-37941          
1 69667U 26143U   26193.25002315 -.00033589  00000+0 -61796-3 0  9990
2 69667  97.2852 237.2721 0001616  65.0666 355.3696 15.49215487  4395
STARLINK-37930          
1 69668U 26143V   26193.25002315 -.00029837  00000+0 -54862-3 0  9998
2 69668  97.2851 237.2742 0001076  80.0855 343.3577 15.49209561  4385
STARLINK-37945          
1 69669U 26143W   26193.25002315 -.00035476  00000+0 -65308-3 0  9992
2 69669  97.2846 237.3018 0001271  73.0883  62.2369 15.49210060  4390
