OBJECT_NAME,OBJECT_ID,EPOCH,MEAN_MOTION,ECCENTRICITY,INCLINATION,RA_OF_ASC_NODE,ARG_OF_PERICENTER,MEAN_ANOMALY,EPHEMERIS_TYPE,CLASSIFICATION_TYPE,NORAD_CAT_ID,ELEMENT_SET_NO,REV_AT_EPOCH,BSTAR,MEAN_MOTION_DOT,MEAN_MOTION_DDOT
KUIPER-00560,2026-140AH,2026-07-12T06:21:08.300160,15.38632727,.00109291,51.8790,277.2998,257.9949,101.9814,0,U,69623,999,509,-.10137841E-2,-.39582E-3,0
KUIPER-00561,2026-140AJ,2026-07-11T17:56:40.634592,15.38107852,.00092458,51.8826,279.8412,285.6749,74.3218,0,U,69624,999,501,-.15960765E-1,-.566727E-2,0
KUIPER-00564,2026-140AK,2026-07-11T13:17:28.081536,15.37273245,.00093758,51.8812,280.7881,286.2520,73.7435,0,U,69625,999,498,.27355671E-3,.9777E-4,0
KUIPER-00567,2026-140AL,2026-07-12T06:17:30.895296,15.38211067,.00114507,51.8798,277.2788,266.7874,93.1803,0,U,69626,999,509,.46504648E-3,.17458E-3,0
KUIPER-00573,2026-140AM,2026-07-11T11:54:24.402528,15.37412133,.00092307,51.8794,281.1424,272.3380,87.6550,0,U,69627,999,497,.38987856E-3,.14175E-3,0
CENTISPACE-1 GROUP 05 OBJECT J,2026-138J,2026-07-11T23:49:29.406144,14.15842737,.00094184,55.1383,189.5194,338.0414,22.0155,0,U,69636,999,350,-.72013192E-4,-.296E-5,0
VICTUS HAZE PUMA,2026-142A,2026-07-12T06:49:38.870688,15.20835629,.00250565,97.4474,90.6217,276.7377,83.1008,0,U,69646,999,348,.10184833E-3,.2194E-4,0
HOKUSHIN-1,1998-067YH,2026-07-11T21:04:13.120032,15.50892630,.00061487,51.6304,177.6950,318.2194,41.8325,0,U,69648,999,348,.25124751E-3,.14373E-3,0
STARLINK-37656,2026-143A,2026-07-12T01:14:04.283808,15.49223123,.00017081,97.2853,236.9044,107.3717,252.7721,0,U,69649,999,439,.62850795E-3,.34283E-3,0
STARLINK-37646,2026-143B,2026-07-12T06:00:02.000160,15.49165293,.00017358,97.2852,237.2799,81.4823,356.2654,0,U,69650,999,448,-.37072765E-3,-.20186E-3,0
STARLINK-37749,2026-143C,2026-07-12T06:00:02.000160,15.49209545,.00006619,97.2850,237.2639,130.5574,268.7840,0,U,69651,999,448,-.59525885E-3,-.32354E-3,0
STARLINK-37819,2026-143D,2026-07-12T06:00:02.000160,15.49211840,.00015615,97.2848,237.2374,68.0337,266.9281,0,U,69652,999,448,-.67393056E-3,-.36604E-3,0
STARLINK-37729,2026-143E,2026-07-12T06:00:02.000160,15.83113586,.00012891,97.2828,237.4756,192.7707,338.3582,0,U,69653,999,448,-.36042435E-3,-.7626E-3,0
STARLINK-37838,2026-143F,2026-07-12T06:00:02.000160,15.49190310,.00016206,97.2847,237.3057,54.9067,85.0875,0,U,69654,999,448,-.35234489E-3,-.19208E-3,0
STARLINK-37884,2026-143G,2026-07-12T06:00:02.000160,15.49213005,.00009785,97.2849,237.2181,85.5016,202.8750,0,U,69655,999,448,-.54384151E-3,-.29582E-3,0
STARLINK-37876,2026-143H,2026-07-12T06:00:02.000160,15.49199963,.00012192,97.2844,237.3047,89.1758,48.4008,0,U,69656,999,439,-.52554534E-3,-.28581E-3,0
STARLINK-37784,2026-143J,2026-07-12T06:00:02.000160,15.49210262,.00013965,97.2849,237.2346,76.4286,253.5878,0,U,69657,999,439,-.66243921E-3,-.35981E-3,0
STARLINK-37851,2026-143K,2026-07-12T06:00:02.000160,15.49208066,.00008237,97.2847,237.3002,91.6168,33.9406,0,U,69658,999,438,-.59383175E-3,-.32276E-3,0
STARLINK-37229,2026-143L,2026-07-12T06:00:02.000160,15.49208125,.00013719,97.2852,237.2544,97.5711,279.3327,0,U,69659,999,443,-.55042283E-3,-.29933E-3,0
STARLINK-37556,2026-143M,2026-07-12T06:00:02.000160,15.49210284,.00012191,97.2853,237.2824,88.9433,351.8983,0,U,69660,999,443,-.48593464E-3,-.2645E-3,0
STARLINK-37867,2026-143N,2026-07-12T06:00:02.000160,15.49205776,.00017753,97.2848,237.2997,79.4715,44.5812,0,U,69661,999,439,-.66869327E-3,-.36314E-3,0
STARLINK-37852,2026-143P,2026-07-12T06:00:02.000160,15.49213732,.00014388,97.2848,237.2254,82.3306,224.7625,0,U,69662,999,439,-.5900035E-3,-.32077E-3,0
STARLINK-37554,2026-143Q,2026-07-12T06:00:02.000160,15.49206176,.00009494,97.2851,237.2767,68.7014,2.6651,0,U,69663,999,443,-.59420369E-3,-.32294E-3,0
STARLINK-37830,2026-143R,2026-07-12T06:00:02.000160,15.49211335,.00018074,97.2850,237.2410,94.5409,252.5680,0,U,69664,999,438,-.73086991E-3,-.39673E-3,0
STARLINK-37837,2026-143S,2026-07-12T06:00:02.000160,15.49190082,.00015052,97.2865,237.3106,49.6341,80.3191,0,U,69665,999,439,.91605501E-3,.50051E-3,0
STARLINK-37943,2026-143T,2026-07-12T06:00:02.000160,15.49224091,.00017123,97.2850,237.2443,78.5060,271.5369,0,U,69666,999,439,-.37486094E-3,-.20451E-3,0
STARLINK-37941,2026-143U,2026-07-12T06:00:02.000160,15.49215487,.0001616,97.2852,237.2721,65.0666,355.3696,0,U,69667,999,439,-.61796438E-3,-.33589E-3,0
STARLINK-37930,2026-143V,2026-07-12T06:00:02.000160,15.49209561,.00010765,97.2851,237.2742,80.0855,343.3577,0,U,69668,999,438,-.548622E-3,-.29837E-3,0
STARLINK-37945,2026-143W,2026-07-12T06:00:02.000160,15.49210060,.00012717,97.2846,237.3018,73.0883,62.2369,0,U,69669,999,439,-.65308307E-3,-.35476E-3,0
